ONEWEB-0647             
1 56079U 23043AK  23319.79734404  .00000070  00000+0  15227-3 0  9991
2 56079  87.8991  87.2392 0001564  84.8993 275.2316 13.15545816 32256
ONEWEB-0651             
1 56080U 23043AL  23319.64045942 -.00000011  00000+0 -62110-4 0  9990
2 56080  87.8986  87.2424 0001904  88.3579 271.7769 13.15550024 33436
ONEWEB-0718             
1 56081U 23043AM  23319.63571606 -.00000127  00000+0 -37273-3 0  9990
2 56081  87.8922  87.2412 0001750 120.8021 239.3282 13.15548856 32245
GSLV R/B                
1 56082U 23043AN  23319.30960800  .00043088  00000+0  72915-3 0  9996
2 56082  87.4134  59.2598 0019613 189.0501 171.0410 15.51176083 36114
ONEWEB-0561             
1 56710U 23068A   23319.62255609  .00000061  00000+0  97033-4 0  9993
2 56710  88.2899  97.6833 0001313  66.3948 293.7331 13.34313775 24646
ONEWEB-0668             
1 56711U 23068B   23319.33874715  .00001929  00000+0  25860-3 0  9999
2 56711  86.7246  67.1705 0013553 323.6302  36.3997 14.78813193 26579
ONEWEB-0676             
1 56712U 23068C   23319.35472244  .00002697  00000+0  36409-3 0  9997
2 56712  86.7198  67.0813 0013449 324.8439  35.1893 14.78693742 26571
ONEWEB-0677             
1 56713U 23068D   23319.45507178 -.00000001  00000+0 -27483-4 0  9996
2 56713  88.3238  95.7122 0002288  85.4940 274.6463 13.34761975 24804
